STARLINK-37051          
1 68080U 26042M   26188.44575075  .00017508  00000+0  52798-3 0  9992
2 68080  53.1587 338.6571 0000549  85.8014 274.3051 15.34406801 20691
STARLINK-37066          
1 68081U 26042N   26188.72312584  .00014640  00000+0  44337-3 0  9992
2 68081  53.1599 337.5648 0000851  79.6164 280.4935 15.34415940 20739
STARLINK-37054          
1 68082U 26042P   26188.74042936  .00013928  00000+0  42236-3 0  9990
2 68082  53.1604 339.0885 0000820  68.8685 291.2405 15.34417532 20710
STARLINK-37065          
1 68083U 26042Q   26188.89805392  .00010907  00000+0  33343-3 0  9993
2 68083  53.1590 338.6745 0000661 113.6213 246.4859 15.34401902 20735
STARLINK-37037          
1 68084U 26042R   26188.73201125  .00022964  00000+0  68875-3 0  9995
2 68084  53.1603 339.0483 0000696  93.2237 266.8846 15.34397854 20712
STARLINK-37068          
1 68085U 26042S   26188.44995384  .00015662  00000+0  47358-3 0  9991
2 68085  53.1573 338.6907 0001092  78.8169 281.2956 15.34408139 20698
STARLINK-37067          
1 68086U 26042T   26188.45836233  .00025371  00000+0  75845-3 0  9990
2 68086  53.1584 338.7332 0000930 121.2745 238.8349 15.34443451 20697
STARLINK-37062          
1 68087U 26042U   26188.72149317  .00010150  00000+0  31104-3 0  9990
2 68087  53.1598 338.9686 0000767  80.9284 279.1805 15.34408428 20717
STARLINK-37059          
1 68088U 26042V   26188.69423198  .00012915  00000+0  39276-3 0  9998
2 68088  53.1602 339.5354 0000716 107.8354 252.2727 15.34394701 20706
STARLINK-37004          
1 68089U 26042W   26188.71316990  .00021545  00000+0  64632-3 0  9996
2 68089  53.1593 339.6491 0001147  42.1292 317.9798 15.34431165 20703
STARLINK-36320          
1 68090U 26042X   26188.72570538  .00015954  00000+0  48201-3 0  9990
2 68090  53.1591 339.0120 0001472  46.0027 314.1097 15.34420267 20719
STARLINK-36324          
1 68091U 26042Y   26188.39161187  .00015249  00000+0  46138-3 0  9994
2 68091  53.1588 340.4767 0001226  49.1288 310.9821 15.34410358 20662
STARLINK-36896          
1 68092U 26042Z   26188.68371021  .00015088  00000+0  45680-3 0  9999
2 68092  53.1604 339.4573 0001125 134.0755 226.0340 15.34397996 20694
STARLINK-36251          
1 68093U 26042AA  26188.74674198  .00011141  00000+0  34041-3 0  9993
2 68093  53.1602 339.1385 0001120 130.2616 229.8485 15.34396309 20700
STARLINK-36787          
1 68094U 26042AB  26188.84966156  .00014618  00000+0  44269-3 0  9998
2 68094  53.1584 338.3542 0000807  80.9497 279.1597 15.34417724 20724
STARLINK-36790          
1 68095U 26042AC  26188.92952639  .00022157  00000+0  66499-3 0  9995
2 68095  53.1601 338.1451 0000824  79.4804 280.6291 15.34398583 20736
STARLINK-36328          
1 68096U 26042AD  26188.70475139  .00014623  00000+0  44307-3 0  9990
2 68096  53.1590 339.5864 0000990  99.4097 260.7018 15.34399871 20699
STARLINK-36853          
1 68097U 26042AE  26188.69002272  .00017310  00000+0  52240-3 0  9994
2 68097  53.1601 339.5032 0000402  89.3826 270.7222 15.34391185 20694
GLOBAL-34               
1 68098U 26043A   26189.13799208  .00006505  00000+0  20726-3 0  9996
2 68098  42.0211  99.6038 0001523  46.5819 313.5146 15.33013766 19044
STARLINK-37022          
1 68101U 26044A   26188.85512389  .00013210  00000+0  41070-3 0  9999
2 68101  97.2829 148.7869 0001521 102.0624 258.0789 15.33450756 19998
STARLINK-37046          
1 68102U 26044B   26188.85240341  .00018804  00000+0  58305-3 0  9999
2 68102  97.2806 148.7929 0002384 358.7238   1.3998 15.33459147 19994
STARLINK-37018          
1 68103U 26044C   26188.84967149  .00016626  00000+0  51573-3 0  9991
2 68103  97.2829 148.7950 0001666  94.4541 265.6892 15.33472115 19995
STARLINK-37041          
1 68104U 26044D   26188.84423487  .00015878  00000+0  49272-3 0  9995
2 68104  97.2829 148.8023 0001812  95.7161 264.4289 15.33469153 19998
STARLINK-37021          
1 68105U 26044E   26188.84151764  .00016695  00000+0  51783-3 0  9990
2 68105  97.2833 148.8040 0001993 117.8277 242.3168 15.33472757 19992
STARLINK-37024          
1 68106U 26044F   26188.83879002  .00008023  00000+0  25046-3 0  9991
2 68106  97.2831 148.8082 0003110 115.2122 244.9443 15.33454515 19997
STARLINK-37005          
1 68107U 26044G   26188.84695411  .00013922  00000+0  43253-3 0  9997
2 68107  97.2829 148.7975 0001150  88.7494 271.3880 15.33462748 19999
STARLINK-37017          
1 68108U 26044H   26188.90132987  .00013271  00000+0  41237-3 0  9996
2 68108  97.2830 148.8765 0001522  75.3459 284.7952 15.33467491 20008
STARLINK-36833          
1 68109U 26044J   26188.89589196  .00016058  00000+0  49822-3 0  9997
2 68109  97.2825 148.8845 0001685  82.2381 277.9053 15.33472112 20005
STARLINK-36830          
1 68110U 26044K   26188.89862418  .00020175  00000+0  62615-3 0  9990
2 68110  97.2827 148.8801 0002791 108.8890 251.2656 15.33412487 20003
STARLINK-36791          
1 68111U 26044L   26188.89317418  .00016350  00000+0  50722-3 0  9992
2 68111  97.2826 148.8886 0001583  95.0254 265.1170 15.33472626 20001
