OBJECT_NAME,OBJECT_ID,EPOCH,MEAN_MOTION,ECCENTRICITY,INCLINATION,RA_OF_ASC_NODE,ARG_OF_PERICENTER,MEAN_ANOMALY,EPHEMERIS_TYPE,CLASSIFICATION_TYPE,NORAD_CAT_ID,ELEMENT_SET_NO,REV_AT_EPOCH,BSTAR,MEAN_MOTION_DOT,MEAN_MOTION_DDOT
STARLINK-37051,2026-042M,2026-07-07T10:41:52.864800,15.34406801,.00005498,53.1587,338.6571,85.8014,274.3051,0,U,68080,999,2069,.52798302E-3,.17508E-3,0
STARLINK-37066,2026-042N,2026-07-07T17:21:18.072576,15.34415940,.0000851,53.1599,337.5648,79.6164,280.4935,0,U,68081,999,2073,.44337E-3,.1464E-3,0
STARLINK-37054,2026-042P,2026-07-07T17:46:13.096704,15.34417532,.000082,53.1604,339.0885,68.8685,291.2405,0,U,68082,999,2071,.42236E-3,.13928E-3,0
STARLINK-37065,2026-042Q,2026-07-07T21:33:11.858688,15.34401902,.0000661,53.1590,338.6745,113.6213,246.4859,0,U,68083,999,2073,.33343E-3,.10907E-3,0
STARLINK-37037,2026-042R,2026-07-07T17:34:05.772000,15.34397854,.0000696,53.1603,339.0483,93.2237,266.8846,0,U,68084,999,2071,.68875E-3,.22964E-3,0
STARLINK-37068,2026-042S,2026-07-07T10:47:56.011776,15.34408139,.00010928,53.1573,338.6907,78.8169,281.2956,0,U,68085,999,2069,.47358076E-3,.15662E-3,0
STARLINK-37067,2026-042T,2026-07-07T11:00:02.505312,15.34443451,.00009301,53.1584,338.7332,121.2745,238.8349,0,U,68086,999,2069,.75844876E-3,.25371E-3,0
STARLINK-37062,2026-042U,2026-07-07T17:18:57.009888,15.34408428,.0000767,53.1598,338.9686,80.9284,279.1805,0,U,68087,999,2071,.31104E-3,.1015E-3,0
STARLINK-37059,2026-042V,2026-07-07T16:39:41.643072,15.34394701,.0000716,53.1602,339.5354,107.8354,252.2727,0,U,68088,999,2070,.39276E-3,.12915E-3,0
STARLINK-37004,2026-042W,2026-07-07T17:06:57.879360,15.34431165,.0001147,53.1593,339.6491,42.1292,317.9798,0,U,68089,999,2070,.64632E-3,.21545E-3,0
STARLINK-36320,2026-042X,2026-07-07T17:25:00.944832,15.34420267,.0001472,53.1591,339.0120,46.0027,314.1097,0,U,68090,999,2071,.48201E-3,.15954E-3,0
STARLINK-36324,2026-042Y,2026-07-07T09:23:55.265568,15.34410358,.00012266,53.1588,340.4767,49.1288,310.9821,0,U,68091,999,2066,.46138384E-3,.15249E-3,0
STARLINK-36896,2026-042Z,2026-07-07T16:24:32.562144,15.34397996,.0001125,53.1604,339.4573,134.0755,226.0340,0,U,68092,999,2069,.4568E-3,.15088E-3,0
STARLINK-36251,2026-042AA,2026-07-07T17:55:18.507072,15.34396309,.000112,53.1602,339.1385,130.2616,229.8485,0,U,68093,999,2070,.34041E-3,.11141E-3,0
STARLINK-36787,2026-042AB,2026-07-07T20:23:30.758784,15.34417724,.0000807,53.1584,338.3542,80.9497,279.1597,0,U,68094,999,2072,.44269E-3,.14618E-3,0
STARLINK-36790,2026-042AC,2026-07-07T22:18:31.080096,15.34398583,.0000824,53.1601,338.1451,79.4804,280.6291,0,U,68095,999,2073,.66499E-3,.22157E-3,0
STARLINK-36328,2026-042AD,2026-07-07T16:54:50.520096,15.34399871,.000099,53.1590,339.5864,99.4097,260.7018,0,U,68096,999,2069,.44307E-3,.14623E-3,0
STARLINK-36853,2026-042AE,2026-07-07T16:33:37.963008,15.34391185,.0000402,53.1601,339.5032,89.3826,270.7222,0,U,68097,999,2069,.5224E-3,.1731E-3,0
GLOBAL-34,2026-043A,2026-07-08T03:18:42.515712,15.33013766,.0001523,42.0211,99.6038,46.5819,313.5146,0,U,68098,999,1904,.20726E-3,.6505E-4,0
STARLINK-37022,2026-044A,2026-07-07T20:31:22.704096,15.33450756,.0001521,97.2829,148.7869,102.0624,258.0789,0,U,68101,999,1999,.4107E-3,.1321E-3,0
STARLINK-37046,2026-044B,2026-07-07T20:27:27.654624,15.33459147,.0002384,97.2806,148.7929,358.7238,1.3998,0,U,68102,999,1999,.58305E-3,.18804E-3,0
STARLINK-37018,2026-044C,2026-07-07T20:23:31.616736,15.33472115,.0001666,97.2829,148.7950,94.4541,265.6892,0,U,68103,999,1999,.51573E-3,.16626E-3,0
STARLINK-37041,2026-044D,2026-07-07T20:15:41.892768,15.33469153,.0001812,97.2829,148.8023,95.7161,264.4289,0,U,68104,999,1999,.49272E-3,.15878E-3,0
STARLINK-37021,2026-044E,2026-07-07T20:11:47.124096,15.33472757,.0001993,97.2833,148.8040,117.8277,242.3168,0,U,68105,999,1999,.51783E-3,.16695E-3,0
STARLINK-37024,2026-044F,2026-07-07T20:07:51.457728,15.33454515,.000311,97.2831,148.8082,115.2122,244.9443,0,U,68106,999,1999,.25046E-3,.8023E-4,0
STARLINK-37005,2026-044G,2026-07-07T20:19:36.835104,15.33462748,.000115,97.2829,148.7975,88.7494,271.3880,0,U,68107,999,1999,.43253E-3,.13922E-3,0
STARLINK-37017,2026-044H,2026-07-07T21:37:54.900768,15.33467491,.0001522,97.2830,148.8765,75.3459,284.7952,0,U,68108,999,2000,.41237E-3,.13271E-3,0
STARLINK-36833,2026-044J,2026-07-07T21:30:05.065344,15.33472112,.0001685,97.2825,148.8845,82.2381,277.9053,0,U,68109,999,2000,.49822E-3,.16058E-3,0
STARLINK-36830,2026-044K,2026-07-07T21:34:01.129152,15.33412487,.0002791,97.2827,148.8801,108.8890,251.2656,0,U,68110,999,2000,.62615E-3,.20175E-3,0
STARLINK-36791,2026-044L,2026-07-07T21:26:10.249152,15.33472626,.0001583,97.2826,148.8886,95.0254,265.1170,0,U,68111,999,2000,.50722E-3,.1635E-3,0
